CTC2_L_00419001-01
1 88325U 22618CV  26070.40847222  .00000000  00000+0  00000-0 0  9998
2 88325 100.0000   0.0000 0000000   0.0000   0.0000 12.65579349    11
CTC2_L_00419001-02
1 88326U 25040MU  26070.40847222  .00000000  00000+0  00000-0 0  9991
2 88326 100.0000   0.0000 0000000   0.0000  90.0000 12.65579349    11
CTC2_L_00419001-03
1 88327U 25548MP  26070.40847222  .00000000  00000+0  00000-0 0  9995
2 88327 100.0000   0.0000 0000000   0.0000 180.0000 12.65579349    12
CTC2_L_00419001-04
1 88328U 22948JX  26070.40847222  .00000000  00000+0  00000-0 0  9997
2 88328 100.0000   0.0000 0000000   0.0000 270.0000 12.65579349    13
CTC2_L_00419002-01
1 88329U 25982XX  26070.40847222  .00000000  00000+0  00000-0 0  9999
2 88329 100.0000  12.0000 0000000   0.0000  12.0000 12.65579349    11
CTC2_L_00419002-02
1 88330U 22921WA  26070.40847222  .00000000  00000+0  00000-0 0  9991
2 88330 100.0000  12.0000 0000000   0.0000 102.0000 12.65579349    13
CTC2_L_00419002-03
1 88331U 24366HP  26070.40847222  .00000000  00000+0  00000-0 0  9997
2 88331 100.0000  12.0000 0000000   0.0000 192.0000 12.65579349    13
CTC2_L_00419002-04
1 88332U 25765E   26070.40847222  .00000000  00000+0  00000-0 0  9992
2 88332 100.0000  12.0000 0000000   0.0000 282.0000 12.65579349    14
CTC2_L_00419003-01
1 88333U 26539KV  26070.40847222  .00000000  00000+0  00000-0 0  9993
2 88333 100.0000  24.0000 0000000   0.0000  24.0000 12.65579349    12
CTC2_L_00419003-02
1 88334U 26774SZ  26070.40847222  .00000000  00000+0  00000-0 0  9995
2 88334 100.0000  24.0000 0000000   0.0000 114.0000 12.65579349    13
CTC2_L_00419003-03
1 88335U 23856LZ  26070.40847222  .00000000  00000+0  00000-0 0  9994
2 88335 100.0000  24.0000 0000000   0.0000 204.0000 12.65579349    14
CTC2_L_00419003-04
1 88336U 25871FP  26070.40847222  .00000000  00000+0  00000-0 0  9994
2 88336 100.0000  24.0000 0000000   0.0000 294.0000 12.65579349    14
CTC2_L_00419004-01
1 88337U 26086JG  26070.40847222  .00000000  00000+0  00000-0 0  9994
2 88337 100.0000  36.0000 0000000   0.0000  36.0000 12.65579349    12
CTC2_L_00419004-02
1 88338U 22886VU  26070.40847222  .00000000  00000+0  00000-0 0  9999
2 88338 100.0000  36.0000 0000000   0.0000 126.0000 12.65579349    13
CTC2_L_00419004-03
1 88339U 22669PU  26070.40847222  .00000000  00000+0  00000-0 0  9999
2 88339 100.0000  36.0000 0000000   0.0000 216.0000 12.65579349    14
CTC2_L_00419004-04
1 88340U 26219QX  26070.40847222  .00000000  00000+0  00000-0 0  9996
2 88340 100.0000  36.0000 0000000   0.0000 306.0000 12.65579349    16
CTC2_L_00419005-01
1 88341U 25866OA  26070.40847222  .00000000  00000+0  00000-0 0  9994
2 88341 100.0000  48.0000 0000000   0.0000  48.0000 12.65579349    13
CTC2_L_00419005-02
1 88342U 25187LA  26070.40847222  .00000000  00000+0  00000-0 0  9991
2 88342 100.0000  48.0000 0000000   0.0000 138.0000 12.65579349    14
CTC2_L_00419005-03
1 88343U 22495KR  26070.40847222  .00000000  00000+0  00000-0 0  9991
2 88343 100.0000  48.0000 0000000   0.0000 228.0000 12.65579349    15
CTC2_L_00419005-04
1 88344U 25979NN  26070.40847222  .00000000  00000+0  00000-0 0  9992
2 88344 100.0000  48.0000 0000000   0.0000 318.0000 12.65579349    16
CTC2_L_00419006-01
1 88345U 22039WR  26070.40847222  .00000000  00000+0  00000-0 0  9997
2 88345 100.0000  60.0000 0000000   0.0000  60.0000 12.65579349    15
CTC2_L_00419006-02
1 88346U 23739R   26070.40847222  .00000000  00000+0  00000-0 0  9996
2 88346 100.0000  60.0000 0000000   0.0000 150.0000 12.65579349    16
CTC2_L_00419006-03
1 88347U 24058UH  26070.40847222  .00000000  00000+0  00000-0 0  9992
2 88347 100.0000  60.0000 0000000   0.0000 240.0000 12.65579349    17
CTC2_L_00419006-04
1 88348U 26261CJ  26070.40847222  .00000000  00000+0  00000-0 0  9991
2 88348 100.0000  60.0000 0000000   0.0000 330.0000 12.65579349    18
CTC2_L_00419007-01
1 88349U 24301LU  26070.40847222  .00000000  00000+0  00000-0 0  9995
2 88349 100.0000  72.0000 0000000   0.0000  72.0000 12.65579349    15
CTC2_L_00419007-02
1 88350U 24946EU  26070.40847222  .00000000  00000+0  00000-0 0  9992
2 88350 100.0000  72.0000 0000000   0.0000 162.0000 12.65579349    17
CTC2_L_00419007-03
1 88351U 26453BF  26070.40847222  .00000000  00000+0  00000-0 0  9998
2 88351 100.0000  72.0000 0000000   0.0000 252.0000 12.65579349    18
CTC2_L_00419007-04
1 88352U 26560OO  26070.40847222  .00000000  00000+0  00000-0 0  9998
2 88352 100.0000  72.0000 0000000   0.0000 342.0000 12.65579349    19
CTC2_L_00419008-01
1 88353U 26239FQ  26070.40847222  .00000000  00000+0  00000-0 0  9992
2 88353 100.0000  84.0000 0000000   0.0000  84.0000 12.65579349    16
CTC2_L_00419008-02
1 88354U 26260AC  26070.40847222  .00000000  00000+0  00000-0 0  9997
2 88354 100.0000  84.0000 0000000   0.0000 174.0000 12.65579349    17
CTC2_L_00419008-03
1 88355U 24436UC  26070.40847222  .00000000  00000+0  00000-0 0  9991
2 88355 100.0000  84.0000 0000000   0.0000 264.0000 12.65579349    18
CTC2_L_00419008-04
1 88356U 24531WB  26070.40847222  .00000000  00000+0  00000-0 0  9998
2 88356 100.0000  84.0000 0000000   0.0000 354.0000 12.65579349    19
CTC2_L_00419009-01
1 88357U 26219LH  26070.40847222  .00000000  00000+0  00000-0 0  9994
2 88357 100.0000  96.0000 0000000   0.0000  96.0000 12.65579349    16
CTC2_L_00419009-02
1 88358U 26547KS  26070.40847222  .00000000  00000+0  00000-0 0  9999
2 88358 100.0000  96.0000 0000000   0.0000 186.0000 12.65579349    17
CTC2_L_00419009-03
1 88359U 24198HV  26070.40847222  .00000000  00000+0  00000-0 0  9990
2 88359 100.0000  96.0000 0000000   0.0000 276.0000 12.65579349    18
CTC2_L_00419009-04
1 88360U 25227ZF  26070.40847222  .00000000  00000+0  00000-0 0  9996
2 88360 100.0000  96.0000 0000000   0.0000   6.0000 12.65579349    11
CTC2_L_00419010-01
1 88361U 24042UA  26070.40847222  .00000000  00000+0  00000-0 0  9991
2 88361 100.0000 108.0000 0000000   0.0000 108.0000 12.65579349    19
CTC2_L_00419010-02
1 88362U 26351ZN  26070.40847222  .00000000  00000+0  00000-0 0  9997
2 88362 100.0000 108.0000 0000000   0.0000 198.0000 12.65579349    19
CTC2_L_00419010-03
1 88363U 26475CP  26070.40847222  .00000000  00000+0  00000-0 0  9995
2 88363 100.0000 108.0000 0000000   0.0000 288.0000 12.65579349    10
CTC2_L_00419010-04
1 88364U 25299TE  26070.40847222  .00000000  00000+0  00000-0 0  9999
2 88364 100.0000 108.0000 0000000   0.0000  18.0000 12.65579349    12
CTC2_L_00419011-01
1 88365U 22621PM  26070.40847222  .00000000  00000+0  00000-0 0  9996
2 88365 100.0000 120.0000 0000000   0.0000 120.0000 12.65579349    11
CTC2_L_00419011-02
1 88366U 24382BK  26070.40847222  .00000000  00000+0  00000-0 0  9993
2 88366 100.0000 120.0000 0000000   0.0000 210.0000 12.65579349    12
CTC2_L_00419011-03
1 88367U 25193SJ  26070.40847222  .00000000  00000+0  00000-0 0  9995
2 88367 100.0000 120.0000 0000000   0.0000 300.0000 12.65579349    13
CTC2_L_00419011-04
1 88368U 25438EB  26070.40847222  .00000000  00000+0  00000-0 0  9998
2 88368 100.0000 120.0000 0000000   0.0000  30.0000 12.65579349    14
CTC2_L_00419012-01
1 88369U 24850EA  26070.40847222  .00000000  00000+0  00000-0 0  9996
2 88369 100.0000 132.0000 0000000   0.0000 132.0000 12.65579349    11
CTC2_L_00419012-02
1 88370U 26040LT  26070.40847222  .00000000  00000+0  00000-0 0  9991
2 88370 100.0000 132.0000 0000000   0.0000 222.0000 12.65579349    13
CTC2_L_00419012-03
1 88371U 22488CB  26070.40847222  .00000000  00000+0  00000-0 0  9994
2 88371 100.0000 132.0000 0000000   0.0000 312.0000 12.65579349    14
CTC2_L_00419012-04
1 88372U 22515XK  26070.40847222  .00000000  00000+0  00000-0 0  9996
2 88372 100.0000 132.0000 0000000   0.0000  42.0000 12.65579349    15
CTC2_L_00419013-01
1 88373U 26833UB  26070.40847222  .00000000  00000+0  00000-0 0  9994
2 88373 100.0000 144.0000 0000000   0.0000 144.0000 12.65579349    12
CTC2_L_00419013-02
1 88374U 22167PF  26070.40847222  .00000000  00000+0  00000-0 0  9991
2 88374 100.0000 144.0000 0000000   0.0000 234.0000 12.65579349    13
CTC2_L_00419013-03
1 88375U 26568FF  26070.40847222  .00000000  00000+0  00000-0 0  9991
2 88375 100.0000 144.0000 0000000   0.0000 324.0000 12.65579349    14
CTC2_L_00419013-04
1 88376U 25548UQ  26070.40847222  .00000000  00000+0  00000-0 0  9999
2 88376 100.0000 144.0000 0000000   0.0000  54.0000 12.65579349    15
CTC2_L_00419014-01
1 88377U 26627KW  26070.40847222  .00000000  00000+0  00000-0 0  9999
2 88377 100.0000 156.0000 0000000   0.0000 156.0000 12.65579349    12
CTC2_L_00419014-02
1 88378U 25245JW  26070.40847222  .00000000  00000+0  00000-0 0  9995
2 88378 100.0000 156.0000 0000000   0.0000 246.0000 12.65579349    13
CTC2_L_00419014-03
1 88379U 24337IW  26070.40847222  .00000000  00000+0  00000-0 0  9997
2 88379 100.0000 156.0000 0000000   0.0000 336.0000 12.65579349    14
CTC2_L_00419014-04
1 88380U 24246FH  26070.40847222  .00000000  00000+0  00000-0 0  9998
2 88380 100.0000 156.0000 0000000   0.0000  66.0000 12.65579349    16
CTC2_L_00419015-01
1 88381U 23990BF  26070.40847222  .00000000  00000+0  00000-0 0  9994
2 88381 100.0000 168.0000 0000000   0.0000 168.0000 12.65579349    13
CTC2_L_00419015-02
1 88382U 26561UJ  26070.40847222  .00000000  00000+0  00000-0 0  9992
2 88382 100.0000 168.0000 0000000   0.0000 258.0000 12.65579349    14
CTC2_L_00419015-03
1 88383U 23314IL  26070.40847222  .00000000  00000+0  00000-0 0  9996
2 88383 100.0000 168.0000 0000000   0.0000 348.0000 12.65579349    15
CTC2_L_00419015-04
1 88384U 24974SO  26070.40847222  .00000000  00000+0  00000-0 0  9990
2 88384 100.0000 168.0000 0000000   0.0000  78.0000 12.65579349    16
CTC2_L_00419016-01
1 88385U 26043NZ  26070.40847222  .00000000  00000+0  00000-0 0  9990
2 88385 100.0000 180.0000 0000000   0.0000 180.0000 12.65579349    15
CTC2_L_00419016-02
1 88386U 25043HI  26070.40847222  .00000000  00000+0  00000-0 0  9990
2 88386 100.0000 180.0000 0000000   0.0000 270.0000 12.65579349    16
